[
  "TORO                    \r\n1 60530U 24149BQ  26189.43625625  .00001208  00000+0  11132-3 0  9994\r\n2 60530  97.6786 263.7075 0001552  93.7438 266.3961 14.96507375103134\r\n",
  "TORO3                   \r\n1 68481U 26067BT  26188.82061278  .00000632  00000+0  67625-4 0  9997\r\n2 68481  97.7683 146.8885 0001480 223.2171 136.8932 14.92159422 14804\r\n",
  "SATORO-T3               \r\n1 64589U 25135BP  26189.45561117  .00002087  00000+0  19909-3 0  9991\r\n2 64589  97.7731 303.7678 0003500 255.7344 104.3488 14.94414433 57085\r\n",
  "GEMINI-POLLUX           \r\n1 69000U 26100W   26189.45109721  .00001408  00000+0  14326-3 0  9990\r\n2 69000  97.7297  86.5296 0001909 116.9503 243.1912 14.92306168  9874\r\n",
  "FORMOSAT-2 (ROCSAT 2)   \r\n1 28254U 04018A   26189.40618683 -.00000239  00000+0 -13055-3 0  9998\r\n2 28254  98.8458 156.2375 0000550 255.0407 268.4937 14.01254841131720\r\n",
  "FORMOSAT-3 FM6          \r\n1 29047U 06011A   26189.48721411  .00000277  00000+0  11845-3 0  9991\r\n2 29047  71.9772 267.6865 0048996 202.9292 156.9659 14.31415256 57453\r\n",
  "FORMOSAT-3 FM1          \r\n1 29048U 06011B   26189.41128439  .00000251  00000+0  10945-3 0  9998\r\n2 29048  71.9643 176.2356 0041699 166.1937 194.0352 14.31404278 59818\r\n",
  "FORMOSAT-3 FM5          \r\n1 29049U 06011C   26188.90222150  .00000321  00000+0  13557-3 0  9997\r\n2 29049  72.0190   1.5266 0033658 173.5827 186.5749 14.31420304 55634\r\n",
  "FORMOSAT-3 FM3          \r\n1 29050U 06011D   26189.18771933  .00000848  00000+0  15836-3 0  9994\r\n2 29050  72.0132 266.8092 0044946 247.8195 111.8189 14.67005445 79459\r\n",
  "FORMOSAT-3 FM4          \r\n1 29051U 06011E   26189.48940242  .00000199  00000+0  88257-4 0  9996\r\n2 29051  72.0032 257.8303 0064504  52.5651 308.1332 14.31554952 58310\r\n",
  "FORMOSAT-3 FM2          \r\n1 29052U 06011F   26189.41728951  .00000326  00000+0  13683-3 0  9993\r\n2 29052  72.0336 338.8594 0037572 124.8248 235.6434 14.31635079 55820\r\n",
  "PACE                    \r\n1 40022U 14033N   26188.99073491  .00002367  00000+0  14596-3 0  9991\r\n2 40022  98.1243 195.1413 0007464 137.6745 222.5061 15.11025419656177\r\n",
  "FORMOSAT-5              \r\n1 42920U 17049A   26189.50042831  .00000079  00000+0  30954-4 0  9997\r\n2 42920  98.2248 264.3362 0011794  24.0308 336.1435 14.50906582469764\r\n",
  "FORMOSAT 7-3            \r\n1 44343U 19036E   26189.26507272  .00003061  00000+0  16301-3 0  9997\r\n2 44343  24.0001  33.4537 0000736 136.3401 223.7161 15.09959264386432\r\n",
  "FORMOSAT 7-1            \r\n1 44349U 19036L   26189.24974381  .00001632  00000+0  11390-3 0  9995\r\n2 44349  23.9976 250.3899 0001137  73.6419 286.4207 14.96596721387816\r\n",
  "FORMOSAT 7-4            \r\n1 44350U 19036M   26189.40567017  .00001841  00000+0  13180-3 0  9990\r\n2 44350  23.9993 311.4458 0001562  79.5122 280.5555 14.96593744387256\r\n",
  "FORMOSAT 7-2            \r\n1 44351U 19036N   26189.49470291  .00001989  00000+0  14453-3 0  9994\r\n2 44351  24.0001   5.1586 0000965  71.9083 288.1523 14.96591945386783\r\n",
  "FORMOSAT 7-6            \r\n1 44353U 19036Q   26189.29427947  .00001640  00000+0  11459-3 0  9991\r\n2 44353  23.9965 187.3218 0001011   7.4831 352.5685 14.96595512384984\r\n",
  "FORMOSAT 7-5            \r\n1 44358U 19036V   26189.00493220  .00001740  00000+0  12323-3 0  9994\r\n2 44358  23.9975 128.0209 0000668  98.7981 261.2595 14.96572751385479\r\n",
  "FORMOSAT-7R (TRITON)    \r\n1 58017U 23155B   26189.51120627  .00001367  00000+0  14331-3 0  9998\r\n2 58017  97.8352 270.7556 0001947  59.8266 300.3145 14.91182131149401\r\n",
  "NIGHTJAR                \r\n1 60535U 24149BV  26189.48526727  .00002347  00000+0  19787-3 0  9996\r\n2 60535  97.6824 265.8927 0002150 108.6742 251.4715 14.99138846146067\r\n",
  "IRIS-F3                 \r\n1 62619U 25009L   26189.54682838  .00004412  00000+0  16774-3 0  9998\r\n2 62619  97.4037 270.2239 0005082 237.2932 122.7817 15.27297187 82089\r\n",
  "IRIS-F2                 \r\n1 62684U 25009CD  26188.77782743  .00009572  00000+0  36111-3 0  9999\r\n2 62684  97.3880 268.3496 0004032 270.1949  89.8828 15.27245616139603\r\n",
  "FORMOSAT-8A             \r\n1 66666U 25276A   26189.14197315  .00001273  00000+0  10513-3 0  9994\r\n2 66666  97.6544 263.0701 0004623 154.1657 205.9799 15.00736401 33206\r\n",
  "LILIUM-2                \r\n1 66679U 25276P   26189.46490275  .00001410  00000+0  72455-4 0  9991\r\n2 66679  97.4144 262.0825 0004479 299.6462  60.4326 15.18075130 33628\r\n",
  "BLACK KITE-1            \r\n1 66741U 25276CD  26188.77339862  .00005145  00000+0  23574-3 0  9994\r\n2 66741  97.4232 262.1945 0004027 276.0094  84.0683 15.20904289 30858\r\n",
  "T.MICROSAT-1            \r\n1 66766U 25276DE  26189.45839172  .00003256  00000+0  14975-3 0  9992\r\n2 66766  97.4152 262.8551 0002219 106.3300 253.8180 15.21049754 33671\r\n",
  "LILIUM-3                \r\n1 66770U 25276DJ  26187.65058942  .00002371  00000+0  11454-3 0  9991\r\n2 66770  97.4236 261.0878 0002444 145.1789 214.9606 15.19614739 33381\r\n",
  "T.MICROSAT-2            \r\n1 68433U 26067T   26189.35929485  .00003544  00000+0  17960-3 0  9997\r\n2 68433  97.4574 147.4113 0005644   9.6216 350.5125 15.17606240 15140\r\n",
  "PARUS-6U1               \r\n1 68456U 26067AS  26189.35335315  .00003684  00000+0  18581-3 0  9990\r\n2 68456  97.4559 147.3950 0005537  12.7066 347.4306 15.17747282 15143\r\n",
  "BLACK KITE-2            \r\n1 68474U 26067BL  26189.33132252  .00001034  00000+0  10577-3 0  9997\r\n2 68474  97.7553 147.3086 0002800 136.0723 224.0719 14.92679689 14885\r\n",
  "PEARL-1B                \r\n1 68980U 26100A   26189.45772763  .00001724  00000+0  18145-3 0  9992\r\n2 68980  97.7339  86.3948 0008928  79.4565 280.7659 14.90650243  9855\r\n",
  "PEARL-1A                \r\n1 68990U 26100L   26189.17077102  .00001235  00000+0  13034-3 0  9996\r\n2 68990  97.7289  86.1190 0006980  92.8873 267.3144 14.91044052  9827\r\n"
]